NORAD_CAT_ID,OBJECT_NAME,OBJECT_TYPE,EPOCH,MEAN_MOTION,ECCENTRICITY,INCLINATION,RA_OF_ASC_NODE,ARG_OF_PERICENTER,MEAN_ANOMALY,BSTAR,MEAN_MOTION_DOT,MEAN_MOTION_DDOT,TLE_LINE0,TLE_LINE1,TLE_LINE2,SEMIMAJOR_AXIS,PERIOD,APOGEE,PERIGEE,DECAYED
53713.0,STARLINK-4698,PAYLOAD,2024-03-08 15:03:01,15.08839656,0.0001314,53.2171,295.6006,85.3786,274.7357,3.0764e-05,2.02e-06,0.0,0 STARLINK-4698,1 53713U 22107P   24068.62710595  .00000202  00000-0  30764-4 0  9994,2 53713  53.2171 295.6006 0001314  85.3786 274.7357 15.08839656 84046,6917.881,95.438,540.655,538.837,0.0
53713.0,STARLINK-4698,PAYLOAD,2024-03-08 21:24:34,15.0883681,0.0001338,53.2173,294.4112,84.3916,275.7229,7.2913e-06,-1.72e-06,0.0,0 STARLINK-4698,1 53713U 22107P   24068.89206886 -.00000172  00000-0  72913-5 0  9996,2 53713  53.2173 294.4112 0001338  84.3916 275.7229 15.08836810 84085,6917.89,95.438,540.681,538.83,0.0
53713.0,STARLINK-4698,PAYLOAD,2024-03-09 00:35:21,15.08837114,0.0001543,53.217,293.8167,92.0446,268.0723,-8.1273e-06,-4.17e-06,0.0,0 STARLINK-4698,1 53713U 22107P   24069.02454923 -.00000417  00000-0 -81273-5 0  9991,2 53713  53.2170 293.8167 0001543  92.0446 268.0723 15.08837114 83662,6917.889,95.438,540.822,538.687,0.0
53713.0,STARLINK-4698,PAYLOAD,2024-03-09 08:32:16,15.08836342,0.0001553,53.2169,292.3293,94.0368,266.0801,-9.1876e-06,-4.34e-06,0.0,0 STARLINK-4698,1 53713U 22107P   24069.35575017 -.00000434  00000-0 -91876-5 0  9994,2 53713  53.2169 292.3293 0001553  94.0368 266.0801 15.08836342 84152,6917.892,95.438,540.831,538.682,0.0
53713.0,STARLINK-4698,PAYLOAD,2024-03-10 00:26:08,15.08840188,0.0001495,53.2155,289.3559,89.7861,270.3302,-1.4675e-05,-5.22e-06,0.0,0 STARLINK-4698,1 53713U 22107P   24070.01814837 -.00000522  00000-0 -14675-4 0  9994,2 53713  53.2155 289.3559 0001495  89.7861 270.3302 15.08840188 84250,6917.88,95.438,540.779,538.711,0.0
53713.0,STARLINK-4698,PAYLOAD,2024-03-10 21:06:09,15.08809188,0.000154,53.2173,285.4899,93.9023,266.2146,0.00036699,5.553e-05,0.0,0 STARLINK-4698,1 53713U 22107P   24070.87927443  .00005553  00000-0  36699-3 0  9992,2 53713  53.2173 285.4899 0001540  93.9023 266.2146 15.08809188 83942,6917.975,95.44,540.905,538.774,0.0
53713.0,STARLINK-4698,PAYLOAD,2024-03-11 06:38:27,15.08833729,0.0001419,53.2169,283.705,93.4779,266.6375,-1.4481e-05,-5.18e-06,0.0,0 STARLINK-4698,1 53713U 22107P   24071.27671285 -.00000518  00000-0 -14481-4 0  9991,2 53713  53.2169 283.7050 0001419  93.4779 266.6375 15.08833729 84009,6917.9,95.438,540.746,538.783,0.0
53713.0,STARLINK-4698,PAYLOAD,2024-03-12 12:50:47,15.0883505,0.0001137,53.2155,278.0547,92.256,267.8562,1.0867e-06,-2.71e-06,0.0,0 STARLINK-4698,1 53713U 22107P   24072.53527429 -.00000271  00000-0  10867-5 0  9991,2 53713  53.2155 278.0547 0001137  92.2560 267.8562 15.08835050 84194,6917.896,95.438,540.547,538.974,0.0
53713.0,STARLINK-4698,PAYLOAD,2024-03-13 12:41:34,15.08835608,0.0001434,53.2113,273.594,78.1745,281.9408,2.9112e-05,1.75e-06,0.0,0 STARLINK-4698,1 53713U 22107P   24073.52887572  .00000175  00000-0  29112-4 0  9993,2 53713  53.2113 273.5940 0001434  78.1745 281.9408 15.08835608 84783,6917.894,95.438,540.751,538.767,0.0
53713.0,STARLINK-4698,PAYLOAD,2024-03-13 22:13:54,15.08828622,0.0001036,53.2162,271.8116,87.7136,272.3975,-7.6359e-05,-1.502e-05,0.0,0 STARLINK-4698,1 53713U 22107P   24073.92632646 -.00001502  00000-0 -76359-4 0  9999,2 53713  53.2162 271.8116 0001036  87.7136 272.3975 15.08828622 84849,6917.915,95.438,540.497,539.063,0.0
53713.0,STARLINK-4698,PAYLOAD,2024-03-14 06:10:50,15.08866111,8.81e-05,53.2174,270.3235,115.2326,244.8758,-0.00042512,-7.052e-05,0.0,0 STARLINK-4698,1 53713U 22107P   24074.25752501 -.00007052  00000-0 -42512-3 0  9998,2 53713  53.2174 270.3235 0000881 115.2326 244.8758 15.08866111 84458,6917.801,95.436,540.275,539.056,0.0
53713.0,STARLINK-4698,PAYLOAD,2024-03-14 22:04:40,15.08863345,0.0001134,53.2165,267.3487,109.9004,250.2111,-0.000226,-3.885e-05,0.0,0 STARLINK-4698,1 53713U 22107P   24074.91991037 -.00003885  00000-0 -22600-3 0  9996,2 53713  53.2165 267.3487 0001134 109.9004 250.2111 15.08863345 84997,6917.809,95.436,540.459,538.89,0.0
53713.0,STARLINK-4698,PAYLOAD,2024-03-15 12:23:08,15.08841917,0.0001046,53.2165,264.6724,87.6085,272.5027,0.00015237,2.138e-05,0.0,0 STARLINK-4698,1 53713U 22107P   24075.51607156  .00002138  00000-0  15237-3 0  9995,2 53713  53.2165 264.6724 0001046  87.6085 272.5027 15.08841917 84640,6917.875,95.437,540.463,539.016,0.0
53713.0,STARLINK-4698,PAYLOAD,2024-03-16 12:13:56,15.08839889,2.67e-05,53.2161,260.2106,18.8531,341.247,8.36e-06,-1.54e-06,0.0,0 STARLINK-4698,1 53713U 22107P   24076.50967791 -.00000154  00000-0  83600-5 0  9997,2 53713  53.2161 260.2106 0000267  18.8531 341.2470 15.08839889 84795,6917.881,95.438,539.93,539.561,0.0
53713.0,STARLINK-4698,PAYLOAD,2024-03-16 21:46:14,15.0884363,9.78e-05,53.2155,258.4296,89.4023,270.7081,-5.0632e-05,-1.094e-05,0.0,0 STARLINK-4698,1 53713U 22107P   24076.90711726 -.00001094  00000-0 -50632-4 0  9999,2 53713  53.2155 258.4296 0000978  89.4023 270.7081 15.08843630 85295,6917.869,95.437,540.411,539.058,0.0
53713.0,STARLINK-4698,PAYLOAD,2024-03-17 12:04:42,15.08838174,9.24e-05,53.2152,255.7536,88.647,271.4628,1.9783e-05,2.7e-07,0.0,0 STARLINK-4698,1 53713U 22107P   24077.50327527  .00000027  00000-0  19783-4 0  9993,2 53713  53.2152 255.7536 0000924  88.6470 271.4628 15.08838174 85389,6917.886,95.438,540.39,539.112,0.0
53713.0,STARLINK-4698,PAYLOAD,2024-03-17 18:26:15,15.08839223,0.0001041,53.2154,254.5637,88.6845,271.4267,2.3316e-05,8.3e-07,0.0,0 STARLINK-4698,1 53713U 22107P   24077.76823485  .00000083  00000-0  23316-4 0  9994,2 53713  53.2154 254.5637 0001041  88.6845 271.4267 15.08839223 84987,6917.883,95.438,540.468,539.028,0.0
53713.0,STARLINK-4698,PAYLOAD,2024-03-18 11:55:30,15.0882909,0.0001119,53.2153,251.2932,81.1927,278.9192,-3.9171e-05,-9.11e-06,0.0,0 STARLINK-4698,1 53713U 22107P   24078.49688618 -.00000911  00000-0 -39171-4 0  9990,2 53713  53.2153 251.2932 0001119  81.1927 278.9192 15.08829090 85096,6917.914,95.438,540.553,539.005,0.0
53713.0,STARLINK-4698,PAYLOAD,2024-03-19 11:46:16,15.08841853,0.0001576,53.218,246.8379,101.3313,258.7856,0.0001125,1.503e-05,0.0,0 STARLINK-4698,1 53713U 22107P   24079.49047337  .00001503  00000-0  11250-3 0  9991,2 53713  53.2180 246.8379 0001576 101.3313 258.7856 15.08841853 85681,6917.875,95.437,540.83,538.649,0.0
53713.0,STARLINK-4698,PAYLOAD,2024-03-19 18:07:49,15.08841886,0.0001378,53.2165,245.6431,98.9025,261.2123,7.2492e-05,8.66e-06,0.0,0 STARLINK-4698,1 53713U 22107P   24079.75543420  .00000866  00000-0  72492-4 0  9991,2 53713  53.2165 245.6431 0001378  98.9025 261.2123 15.08841886 85289,6917.875,95.437,540.693,538.786,0.0
53713.0,STARLINK-4698,PAYLOAD,2024-03-20 17:58:37,15.08835734,0.0001376,53.2168,241.183,73.3752,286.7391,-3.2983e-05,-8.13e-06,0.0,0 STARLINK-4698,1 53713U 22107P   24080.74904790 -.00000813  00000-0 -32983-4 0  9998,2 53713  53.2168 241.1830 0001376  73.3752 286.7391 15.08835734 85439,6917.893,95.438,540.71,538.807,0.0
53713.0,STARLINK-4698,PAYLOAD,2024-03-21 03:30:55,15.08847069,0.0001331,53.2169,239.3985,82.7868,277.3276,1.6067e-05,-3.2e-07,0.0,0 STARLINK-4698,1 53713U 22107P   24081.14647896 -.00000032  00000-0  16067-4 0  9991,2 53713  53.2169 239.3985 0001331  82.7868 277.3276 15.08847069 85491,6917.859,95.437,540.645,538.803,0.0
53713.0,STARLINK-4698,PAYLOAD,2024-03-21 14:38:37,15.08845684,0.0001397,53.2173,237.3175,85.2624,274.8528,6.6947e-06,-1.81e-06,0.0,0 STARLINK-4698,1 53713U 22107P   24081.61015921 -.00000181  00000-0  66947-5 0  9999,2 53713  53.2173 237.3175 0001397  85.2624 274.8528 15.08845684 86006,6917.863,95.437,540.694,538.762,0.0
53713.0,STARLINK-4698,PAYLOAD,2024-03-21 17:49:23,15.08846948,0.0001358,53.2169,236.7227,81.7871,278.3275,2.403e-05,9.5e-07,0.0,0 STARLINK-4698,1 53713U 22107P   24081.74263755  .00000095  00000-0  24030-4 0  9992,2 53713  53.2169 236.7227 0001358  81.7871 278.3275 15.08846948 86028,6917.859,95.437,540.664,538.785,0.0
53713.0,STARLINK-4698,PAYLOAD,2024-03-22 14:29:24,15.08841889,0.0001395,53.2169,232.8568,81.8381,278.2769,0.00011541,1.549e-05,0.0,0 STARLINK-4698,1 53713U 22107P   24082.60375670  .00001549  00000-0  11541-3 0  9995,2 53713  53.2169 232.8568 0001395  81.8381 278.2769 15.08841889 86151,6917.875,95.437,540.705,538.775,0.0
53713.0,STARLINK-4698,PAYLOAD,2024-03-22 19:15:34,15.08845296,0.0001255,53.2172,231.9656,78.9174,281.1959,-7.6596e-05,-1.507e-05,0.0,0 STARLINK-4698,1 53713U 22107P   24082.80248077 -.00001507  00000-0 -76596-4 0  9995,2 53713  53.2172 231.9656 0001255  78.9174 281.1959 15.08845296 85749,6917.864,95.437,540.597,538.861,0.0
53713.0,STARLINK-4698,PAYLOAD,2024-03-23 09:34:03,15.08831648,0.0001376,53.2173,229.289,82.8217,277.2932,-6.2913e-05,-1.289e-05,0.0,0 STARLINK-4698,1 53713U 22107P   24083.39865048 -.00001289  00000-0 -62913-4 0  9998,2 53713  53.2173 229.2890 0001376  82.8217 277.2932 15.08831648 85839,6917.906,95.438,540.723,538.819,0.0
53713.0,STARLINK-4698,PAYLOAD,2024-03-23 15:55:35,15.08840426,0.0001894,53.2169,228.1015,67.6786,292.4407,1.2075e-05,-9.6e-07,0.0,0 STARLINK-4698,1 53713U 22107P   24083.66360447 -.00000096  00000-0  12075-4 0  9999,2 53713  53.2169 228.1015 0001894  67.6786 292.4407 15.08840426 85872,6917.879,95.438,541.054,538.434,0.0
53713.0,STARLINK-4698,PAYLOAD,2024-03-24 12:35:34,15.08841129,0.0001681,53.2159,224.2346,113.3978,246.7191,0.00037253,5.646e-05,0.0,0 STARLINK-4698,1 53713U 22107P   24084.52470216  .00005646  00000-0  37253-3 0  9990,2 53713  53.2159 224.2346 0001681 113.3978 246.7191 15.08841129 86000,6917.877,95.437,540.905,538.579,0.0
53713.0,STARLINK-4698,PAYLOAD,2024-03-24 14:10:57,15.0886824,0.0001666,53.2167,223.9367,125.9282,234.1865,2.2002e-06,-2.53e-06,0.0,0 STARLINK-4698,1 53713U 22107P   24084.59093902 -.00000253  00000-0  22002-5 0  9998,2 53713  53.2167 223.9367 0001666 125.9282 234.1865 15.08868240 86459,6917.794,95.436,540.812,538.507,0.0
